FLOCK 4Q-13             
1 58328U 23174CA  26095.75571303  .00028508  00000+0  53437-3 0  9993
2 58328  97.3998 184.6310 0006737  63.8210 296.3733 15.48601785134454
FLOCK 4BE-18            
1 60480U 24149N   26095.72774618  .00023021  00000+0  58660-3 0  9997
2 60480  97.3735 178.8278 0004891 148.0534 212.1009 15.39542075 91154
FLOCK 4BE-7             
1 60481U 24149P   26095.71327159  .00027181  00000+0  73928-3 0  9996
2 60481  97.3772 178.3273 0003999 148.4547 211.6938 15.37502584 91101
FLOCK 4BE-26            
1 60484U 24149S   26095.72554134  .00141945  00000+0  24233-2 0  9994
2 60484  97.3708 179.0858 0005455 179.9442 180.1811 15.50793407 91170
FLOCK 4BE-36            
1 60486U 24149U   26095.67621212  .00023839  00000+0  58958-3 0  9995
2 60486  97.3751 179.3625 0004659 156.3619 203.7842 15.40447272 91187
FLOCK 4BE-25            
1 60487U 24149V   26095.79856684  .00019372  00000+0  53698-3 0  9995
2 60487  97.3807 178.5608 0003470 142.6583 217.4904 15.36982760 91115
FLOCK 4BE-31            
1 60488U 24149W   26095.76013272  .00026519  00000+0  63571-3 0  9993
2 60488  97.3806 180.1256 0003646 152.7155 207.4284 15.41377004 91211
FLOCK 4BE-20            
1 60489U 24149X   26095.72508704  .00018384  00000+0  52277-3 0  9991
2 60489  97.3710 177.5497 0004859 152.5082 207.6420 15.36190397 91088
FLOCK 4BE-23            
1 60490U 24149Y   26095.69814955  .00018678  00000+0  53732-3 0  9990
2 60490  97.3789 177.8584 0004472 158.3384 201.8050 15.35826763 91061
FLOCK 4BE-15            
1 60491U 24149Z   26095.75760759  .00114781  00000+0  23584-2 0  9993
2 60491  97.3718 179.2531 0005302 222.5186 137.5653 15.45553567 91197
FLOCK 4BE-17            
1 60492U 24149AA  26095.18984438  .00022171  00000+0  60033-3 0  9995
2 60492  97.3782 178.0997 0004191 149.7362 210.4126 15.37680566 91033
FLOCK 4BE-22            
1 60494U 24149AC  26095.75485149  .00022501  00000+0  58434-3 0  9994
2 60494  97.3741 178.7521 0004551 157.8695 202.2748 15.38965878 91154
FLOCK 4BE-34            
1 60495U 24149AD  26095.77420711  .00022344  00000+0  57805-3 0  9997
2 60495  97.3787 179.5429 0004677 164.2450 195.8942 15.39083628 91182
FLOCK 4BE-32            
1 60497U 24149AF  26095.71646306  .00025133  00000+0  63525-3 0  9998
2 60497  97.3729 178.9956 0004652 162.1714 197.9696 15.39773942 91174
FLOCK 4BE-30            
1 60499U 24149AH  26095.76962212  .00102493  00000+0  23025-2 0  9997
2 60499  97.3803 179.6952 0003431 205.4185 154.6895 15.42964799 90569
FLOCK 4BE-11            
1 60501U 24149AK  26095.75047945  .00024085  00000+0  59297-3 0  9998
2 60501  97.3710 179.1879 0004802 162.8973 197.2436 15.40582803 91191
