[{"OBJECT_NAME":"FLOCK 4Q-13","OBJECT_ID":"2023-174CA","EPOCH":"2026-04-05T18:08:13.605792","MEAN_MOTION":15.48601785,"ECCENTRICITY":0.0006737,"INCLINATION":97.3998,"RA_OF_ASC_NODE":184.631,"ARG_OF_PERICENTER":63.821,"MEAN_ANOMALY":296.3733,"EPHEMERIS_TYPE":0,"CLASSIFICATION_TYPE":"U","NORAD_CAT_ID":58328,"ELEMENT_SET_NO":999,"REV_AT_EPOCH":13445,"BSTAR":0.00053437,"MEAN_MOTION_DOT":0.00028508,"MEAN_MOTION_DDOT":0},{"OBJECT_NAME":"FLOCK 4BE-18","OBJECT_ID":"2024-149N","EPOCH":"2026-04-05T17:27:57.269952","MEAN_MOTION":15.39542075,"ECCENTRICITY":0.0004891,"INCLINATION":97.3735,"RA_OF_ASC_NODE":178.8278,"ARG_OF_PERICENTER":148.0534,"MEAN_ANOMALY":212.1009,"EPHEMERIS_TYPE":0,"CLASSIFICATION_TYPE":"U","NORAD_CAT_ID":60480,"ELEMENT_SET_NO":999,"REV_AT_EPOCH":9115,"BSTAR":0.0005866,"MEAN_MOTION_DOT":0.00023021,"MEAN_MOTION_DDOT":0},{"OBJECT_NAME":"FLOCK 4BE-7","OBJECT_ID":"2024-149P","EPOCH":"2026-04-05T17:07:06.665376","MEAN_MOTION":15.37502584,"ECCENTRICITY":0.0003999,"INCLINATION":97.3772,"RA_OF_ASC_NODE":178.3273,"ARG_OF_PERICENTER":148.4547,"MEAN_ANOMALY":211.6938,"EPHEMERIS_TYPE":0,"CLASSIFICATION_TYPE":"U","NORAD_CAT_ID":60481,"ELEMENT_SET_NO":999,"REV_AT_EPOCH":9110,"BSTAR":0.00073928,"MEAN_MOTION_DOT":0.00027181,"MEAN_MOTION_DDOT":0},{"OBJECT_NAME":"FLOCK 4BE-26","OBJECT_ID":"2024-149S","EPOCH":"2026-04-05T17:24:46.771776","MEAN_MOTION":15.50793407,"ECCENTRICITY":0.0005455,"INCLINATION":97.3708,"RA_OF_ASC_NODE":179.0858,"ARG_OF_PERICENTER":179.9442,"MEAN_ANOMALY":180.1811,"EPHEMERIS_TYPE":0,"CLASSIFICATION_TYPE":"U","NORAD_CAT_ID":60484,"ELEMENT_SET_NO":999,"REV_AT_EPOCH":9117,"BSTAR":0.0024233,"MEAN_MOTION_DOT":0.00141945,"MEAN_MOTION_DDOT":0},{"OBJECT_NAME":"FLOCK 4BE-36","OBJECT_ID":"2024-149U","EPOCH":"2026-04-05T16:13:44.727168","MEAN_MOTION":15.40447272,"ECCENTRICITY":0.0004659,"INCLINATION":97.3751,"RA_OF_ASC_NODE":179.3625,"ARG_OF_PERICENTER":156.3619,"MEAN_ANOMALY":203.7842,"EPHEMERIS_TYPE":0,"CLASSIFICATION_TYPE":"U","NORAD_CAT_ID":60486,"ELEMENT_SET_NO":999,"REV_AT_EPOCH":9118,"BSTAR":0.00058958,"MEAN_MOTION_DOT":0.00023839,"MEAN_MOTION_DDOT":0},{"OBJECT_NAME":"FLOCK 4BE-25","OBJECT_ID":"2024-149V","EPOCH":"2026-04-05T19:09:56.174976","MEAN_MOTION":15.3698276,"ECCENTRICITY":0.000347,"INCLINATION":97.3807,"RA_OF_ASC_NODE":178.5608,"ARG_OF_PERICENTER":142.6583,"MEAN_ANOMALY":217.4904,"EPHEMERIS_TYPE":0,"CLASSIFICATION_TYPE":"U","NORAD_CAT_ID":60487,"ELEMENT_SET_NO":999,"REV_AT_EPOCH":9111,"BSTAR":0.00053698,"MEAN_MOTION_DOT":0.00019372,"MEAN_MOTION_DDOT":0},{"OBJECT_NAME":"FLOCK 4BE-31","OBJECT_ID":"2024-149W","EPOCH":"2026-04-05T18:14:35.467008","MEAN_MOTION":15.41377004,"ECCENTRICITY":0.0003646,"INCLINATION":97.3806,"RA_OF_ASC_NODE":180.1256,"ARG_OF_PERICENTER":152.7155,"MEAN_ANOMALY":207.4284,"EPHEMERIS_TYPE":0,"CLASSIFICATION_TYPE":"U","NORAD_CAT_ID":60488,"ELEMENT_SET_NO":999,"REV_AT_EPOCH":9121,"BSTAR":0.00063571,"MEAN_MOTION_DOT":0.00026519,"MEAN_MOTION_DDOT":0},{"OBJECT_NAME":"FLOCK 4BE-20","OBJECT_ID":"2024-149X","EPOCH":"2026-04-05T17:24:07.520256","MEAN_MOTION":15.36190397,"ECCENTRICITY":0.0004859,"INCLINATION":97.371,"RA_OF_ASC_NODE":177.5497,"ARG_OF_PERICENTER":152.5082,"MEAN_ANOMALY":207.642,"EPHEMERIS_TYPE":0,"CLASSIFICATION_TYPE":"U","NORAD_CAT_ID":60489,"ELEMENT_SET_NO":999,"REV_AT_EPOCH":9108,"BSTAR":0.00052277,"MEAN_MOTION_DOT":0.00018384,"MEAN_MOTION_DDOT":0},{"OBJECT_NAME":"FLOCK 4BE-23","OBJECT_ID":"2024-149Y","EPOCH":"2026-04-05T16:45:20.121120","MEAN_MOTION":15.35826763,"ECCENTRICITY":0.0004472,"INCLINATION":97.3789,"RA_OF_ASC_NODE":177.8584,"ARG_OF_PERICENTER":158.3384,"MEAN_ANOMALY":201.805,"EPHEMERIS_TYPE":0,"CLASSIFICATION_TYPE":"U","NORAD_CAT_ID":60490,"ELEMENT_SET_NO":999,"REV_AT_EPOCH":9106,"BSTAR":0.00053732,"MEAN_MOTION_DOT":0.00018678,"MEAN_MOTION_DDOT":0},{"OBJECT_NAME":"FLOCK 4BE-15","OBJECT_ID":"2024-149Z","EPOCH":"2026-04-05T18:10:57.295776","MEAN_MOTION":15.45553567,"ECCENTRICITY":0.0005302,"INCLINATION":97.3718,"RA_OF_ASC_NODE":179.2531,"ARG_OF_PERICENTER":222.5186,"MEAN_ANOMALY":137.5653,"EPHEMERIS_TYPE":0,"CLASSIFICATION_TYPE":"U","NORAD_CAT_ID":60491,"ELEMENT_SET_NO":999,"REV_AT_EPOCH":9119,"BSTAR":0.0023584,"MEAN_MOTION_DOT":0.00114781,"MEAN_MOTION_DDOT":0},{"OBJECT_NAME":"FLOCK 4BE-17","OBJECT_ID":"2024-149AA","EPOCH":"2026-04-05T04:33:22.554432","MEAN_MOTION":15.37680566,"ECCENTRICITY":0.00041918,"INCLINATION":97.3782,"RA_OF_ASC_NODE":178.0997,"ARG_OF_PERICENTER":149.7362,"MEAN_ANOMALY":210.4126,"EPHEMERIS_TYPE":0,"CLASSIFICATION_TYPE":"U","NORAD_CAT_ID":60492,"ELEMENT_SET_NO":999,"REV_AT_EPOCH":9103,"BSTAR":0.00060033142,"MEAN_MOTION_DOT":0.00022171,"MEAN_MOTION_DDOT":0},{"OBJECT_NAME":"FLOCK 4BE-22","OBJECT_ID":"2024-149AC","EPOCH":"2026-04-05T18:06:59.168736","MEAN_MOTION":15.38965878,"ECCENTRICITY":0.0004551,"INCLINATION":97.3741,"RA_OF_ASC_NODE":178.7521,"ARG_OF_PERICENTER":157.8695,"MEAN_ANOMALY":202.2748,"EPHEMERIS_TYPE":0,"CLASSIFICATION_TYPE":"U","NORAD_CAT_ID":60494,"ELEMENT_SET_NO":999,"REV_AT_EPOCH":9115,"BSTAR":0.00058434,"MEAN_MOTION_DOT":0.00022501,"MEAN_MOTION_DDOT":0},{"OBJECT_NAME":"FLOCK 4BE-34","OBJECT_ID":"2024-149AD","EPOCH":"2026-04-05T18:34:51.494304","MEAN_MOTION":15.39083628,"ECCENTRICITY":0.0004677,"INCLINATION":97.3787,"RA_OF_ASC_NODE":179.5429,"ARG_OF_PERICENTER":164.245,"MEAN_ANOMALY":195.8942,"EPHEMERIS_TYPE":0,"CLASSIFICATION_TYPE":"U","NORAD_CAT_ID":60495,"ELEMENT_SET_NO":999,"REV_AT_EPOCH":9118,"BSTAR":0.00057805,"MEAN_MOTION_DOT":0.00022344,"MEAN_MOTION_DDOT":0},{"OBJECT_NAME":"FLOCK 4BE-32","OBJECT_ID":"2024-149AF","EPOCH":"2026-04-05T17:11:42.408384","MEAN_MOTION":15.39773942,"ECCENTRICITY":0.0004652,"INCLINATION":97.3729,"RA_OF_ASC_NODE":178.9956,"ARG_OF_PERICENTER":162.1714,"MEAN_ANOMALY":197.9696,"EPHEMERIS_TYPE":0,"CLASSIFICATION_TYPE":"U","NORAD_CAT_ID":60497,"ELEMENT_SET_NO":999,"REV_AT_EPOCH":9117,"BSTAR":0.00063525,"MEAN_MOTION_DOT":0.00025133,"MEAN_MOTION_DDOT":0},{"OBJECT_NAME":"FLOCK 4BE-30","OBJECT_ID":"2024-149AH","EPOCH":"2026-04-05T18:28:15.351168","MEAN_MOTION":15.42964799,"ECCENTRICITY":0.0003431,"INCLINATION":97.3803,"RA_OF_ASC_NODE":179.6952,"ARG_OF_PERICENTER":205.4185,"MEAN_ANOMALY":154.6895,"EPHEMERIS_TYPE":0,"CLASSIFICATION_TYPE":"U","NORAD_CAT_ID":60499,"ELEMENT_SET_NO":999,"REV_AT_EPOCH":9056,"BSTAR":0.0023025,"MEAN_MOTION_DOT":0.00102493,"MEAN_MOTION_DDOT":0},{"OBJECT_NAME":"FLOCK 4BE-11","OBJECT_ID":"2024-149AK","EPOCH":"2026-04-05T18:00:41.424480","MEAN_MOTION":15.40582803,"ECCENTRICITY":0.0004802,"INCLINATION":97.371,"RA_OF_ASC_NODE":179.1879,"ARG_OF_PERICENTER":162.8973,"MEAN_ANOMALY":197.2436,"EPHEMERIS_TYPE":0,"CLASSIFICATION_TYPE":"U","NORAD_CAT_ID":60501,"ELEMENT_SET_NO":999,"REV_AT_EPOCH":9119,"BSTAR":0.00059297,"MEAN_MOTION_DOT":0.00024085,"MEAN_MOTION_DDOT":0}]
